{
  "norad_id": 62423,
  "name": "STARLINK-32680",
  "history": [
    {
      "epoch": "2026-03-28T08:06:06.626016Z",
      "apogee_km": 484.5052299174431,
      "perigee_km": 481.42390920255366,
      "latitude_deg": 2.32222393505068e-05,
      "longitude_deg": -98.36075011000771,
      "height_km": 482.4912643176405,
      "semi_major_axis_km": 6861.101569559998,
      "eccentricity": 0.00022455,
      "inclination_deg": 42.9994,
      "raan_deg": 208.9263,
      "arg_perigee_deg": 279.3612,
      "mean_anomaly_deg": 80.6986,
      "mean_motion_rev_day": 15.27608229
    },
    {
      "epoch": "2026-03-29T09:12:36.864000Z",
      "apogee_km": 483.9822967012342,
      "perigee_km": 481.96019087962486,
      "latitude_deg": -1.1172789932309538e-05,
      "longitude_deg": -121.92974377971515,
      "height_km": 482.67043815412995,
      "semi_major_axis_km": 6861.10824379043,
      "eccentricity": 0.00014736,
      "inclination_deg": 42.9964,
      "raan_deg": 203.0145,
      "arg_perigee_deg": 274.3776,
      "mean_anomaly_deg": 85.6907,
      "mean_motion_rev_day": 15.27606
    },
    {
      "epoch": "2026-03-30T08:44:57.824160Z",
      "apogee_km": 483.7358250157695,
      "perigee_km": 482.2734412880791,
      "latitude_deg": -1.374211836943175e-05,
      "longitude_deg": -121.52049855308111,
      "height_km": 483.28455034121356,
      "semi_major_axis_km": 6861.141633151924,
      "eccentricity": 0.00010657,
      "inclination_deg": 43.0007,
      "raan_deg": 197.4778,
      "arg_perigee_deg": 226.4529,
      "mean_anomaly_deg": 133.6234,
      "mean_motion_rev_day": 15.27594849
    },
    {
      "epoch": "2026-03-31T12:59:46.570272Z",
      "apogee_km": 484.1769930710261,
      "perigee_km": 481.82293697832665,
      "latitude_deg": -1.5251001094491178e-05,
      "longitude_deg": 166.97453464266115,
      "height_km": 482.8228577439499,
      "semi_major_axis_km": 6861.136965024676,
      "eccentricity": 0.00017155,
      "inclination_deg": 43.0029,
      "raan_deg": 190.836,
      "arg_perigee_deg": 267.7787,
      "mean_anomaly_deg": 92.2868,
      "mean_motion_rev_day": 15.27596408
    },
    {
      "epoch": "2026-04-01T12:32:08.042784Z",
      "apogee_km": 483.85043935548674,
      "perigee_km": 482.2655033171077,
      "latitude_deg": 3.925284346656207e-05,
      "longitude_deg": 167.3786006369432,
      "height_km": 482.72903853844485,
      "semi_major_axis_km": 6861.194971336297,
      "eccentricity": 0.0001155,
      "inclination_deg": 43.0017,
      "raan_deg": 185.2962,
      "arg_perigee_deg": 277.6591,
      "mean_anomaly_deg": 82.413,
      "mean_motion_rev_day": 15.27577036
    },
    {
      "epoch": "2026-04-02T15:12:46.545120Z",
      "apogee_km": 483.7531147094787,
      "perigee_km": 482.0869756166321,
      "latitude_deg": 3.4393795635916235e-05,
      "longitude_deg": 119.84476977042334,
      "height_km": 482.91711226884473,
      "semi_major_axis_km": 6861.057045163056,
      "eccentricity": 0.00012142,
      "inclination_deg": 43.0013,
      "raan_deg": 179.0184,
      "arg_perigee_deg": 254.6552,
      "mean_anomaly_deg": 105.4166,
      "mean_motion_rev_day": 15.27623099
    },
    {
      "epoch": "2026-04-03T06:54:20.228832Z",
      "apogee_km": 483.7970021548326,
      "perigee_km": 482.1393591431879,
      "latitude_deg": -4.255382252611636e-05,
      "longitude_deg": -119.88283672589472,
      "height_km": 483.310527028583,
      "semi_major_axis_km": 6861.10518064901,
      "eccentricity": 0.0001208,
      "inclination_deg": 43.0018,
      "raan_deg": 175.3257,
      "arg_perigee_deg": 226.9325,
      "mean_anomaly_deg": 133.1425,
      "mean_motion_rev_day": 15.27607023
    },
    {
      "epoch": "2026-04-04T04:52:32.949696Z",
      "apogee_km": 486.13614002419126,
      "perigee_km": 479.9163583155532,
      "latitude_deg": 3.3684399272771886e-05,
      "longitude_deg": -95.50754333652655,
      "height_km": 480.86372075747795,
      "semi_major_axis_km": 6861.163249169872,
      "eccentricity": 0.00045326,
      "inclination_deg": 43.0018,
      "raan_deg": 170.1562,
      "arg_perigee_deg": 308.6227,
      "mean_anomaly_deg": 51.4219,
      "mean_motion_rev_day": 15.2758763
    },
    {
      "epoch": "2026-04-05T04:24:53.915904Z",
      "apogee_km": 483.3671088686897,
      "perigee_km": 482.8471637880393,
      "latitude_deg": 1.5588845717171164e-05,
      "longitude_deg": -95.10254175592073,
      "height_km": 483.120804133853,
      "semi_major_axis_km": 6861.244136328364,
      "eccentricity": 3.789e-05,
      "inclination_deg": 42.9972,
      "raan_deg": 164.6153,
      "arg_perigee_deg": 156.694,
      "mean_anomaly_deg": 203.3929,
      "mean_motion_rev_day": 15.27560617
    },
    {
      "epoch": "2026-04-06T05:31:25.533696Z",
      "apogee_km": 483.86904261918426,
      "perigee_km": 482.196289454605,
      "latitude_deg": 6.5183686031972e-05,
      "longitude_deg": -118.6712127696801,
      "height_km": 482.77532182003773,
      "semi_major_axis_km": 6861.169666036894,
      "eccentricity": 0.0001219,
      "inclination_deg": 43.0019,
      "raan_deg": 158.7095,
      "arg_perigee_deg": 272.3368,
      "mean_anomaly_deg": 87.7345,
      "mean_motion_rev_day": 15.27585487
    },
    {
      "epoch": "2026-04-07T05:03:45.170208Z",
      "apogee_km": 483.58869712156593,
      "perigee_km": 482.29675580907315,
      "latitude_deg": 5.01516595871539e-05,
      "longitude_deg": -118.26085379449042,
      "height_km": 482.99676386887774,
      "semi_major_axis_km": 6861.079726465319,
      "eccentricity": 9.415e-05,
      "inclination_deg": 43.0002,
      "raan_deg": 153.1684,
      "arg_perigee_deg": 244.5255,
      "mean_anomaly_deg": 115.55,
      "mean_motion_rev_day": 15.27615524
    },
    {
      "epoch": "2026-04-08T03:01:56.049888Z",
      "apogee_km": 484.14119300908806,
      "perigee_km": 481.7625907120582,
      "latitude_deg": 3.085456578975205e-05,
      "longitude_deg": -93.87687213666828,
      "height_km": 482.23872453998683,
      "semi_major_axis_km": 6861.088891860573,
      "eccentricity": 0.00017334,
      "inclination_deg": 43.0009,
      "raan_deg": 148.0,
      "arg_perigee_deg": 294.3404,
      "mean_anomaly_deg": 65.7267,
      "mean_motion_rev_day": 15.27612463
    },
    {
      "epoch": "2026-04-09T04:08:26.028672Z",
      "apogee_km": 483.80574088176854,
      "perigee_km": 482.2147780552432,
      "latitude_deg": 3.707447137663676e-05,
      "longitude_deg": -117.44424266857642,
      "height_km": 483.0844456557658,
      "semi_major_axis_km": 6861.147259468506,
      "eccentricity": 0.00011594,
      "inclination_deg": 42.9995,
      "raan_deg": 142.0887,
      "arg_perigee_deg": 248.01,
      "mean_anomaly_deg": 112.0629,
      "mean_motion_rev_day": 15.2759297
    },
    {
      "epoch": "2026-04-10T02:06:37.698912Z",
      "apogee_km": 484.58493364511196,
      "perigee_km": 481.4396455877659,
      "latitude_deg": 3.610444864360933e-05,
      "longitude_deg": -93.05474441000881,
      "height_km": 482.3310745565784,
      "semi_major_axis_km": 6861.149289616438,
      "eccentricity": 0.00022921,
      "inclination_deg": 43.0092,
      "raan_deg": 136.9291,
      "arg_perigee_deg": 286.9931,
      "mean_anomaly_deg": 73.067,
      "mean_motion_rev_day": 15.27592292
    },
    {
      "epoch": "2026-04-11T18:54:42.372288Z",
      "apogee_km": 483.28429090900863,
      "perigee_km": 482.78205325241106,
      "latitude_deg": 1.3082764381979329e-05,
      "longitude_deg": 3.643605475147092,
      "height_km": 482.575968362931,
      "semi_major_axis_km": 6861.17017208071,
      "eccentricity": 3.66e-05,
      "inclination_deg": 42.9999,
      "raan_deg": 127.3226,
      "arg_perigee_deg": 337.9616,
      "mean_anomaly_deg": 22.122,
      "mean_motion_rev_day": 15.27585318
    },
    {
      "epoch": "2026-04-13T02:17:48.650208Z",
      "apogee_km": 484.63858223359875,
      "perigee_km": 481.35470644874385,
      "latitude_deg": -7.438086568926709e-06,
      "longitude_deg": -115.81031451192055,
      "height_km": 483.38335111774165,
      "semi_major_axis_km": 6861.133644341171,
      "eccentricity": 0.00023931,
      "inclination_deg": 43.0038,
      "raan_deg": 119.9338,
      "arg_perigee_deg": 248.2274,
      "mean_anomaly_deg": 111.8323,
      "mean_motion_rev_day": 15.27597517
    },
    {
      "epoch": "2026-04-14T17:31:43.688064Z",
      "apogee_km": 485.52409006512335,
      "perigee_km": 480.5538541909136,
      "latitude_deg": 6.0591181596522955e-06,
      "longitude_deg": 4.867677976150859,
      "height_km": 483.2790884725525,
      "semi_major_axis_km": 6861.175972128018,
      "eccentricity": 0.0003622,
      "inclination_deg": 43.0042,
      "raan_deg": 110.7023,
      "arg_perigee_deg": 259.2967,
      "mean_anomaly_deg": 100.7477,
      "mean_motion_rev_day": 15.27583381
    },
    {
      "epoch": "2026-04-15T17:04:04.787328Z",
      "apogee_km": 484.77800513423426,
      "perigee_km": 481.26234819691035,
      "latitude_deg": 3.622315502941085e-05,
      "longitude_deg": 5.2741780119481065,
      "height_km": 483.06196181442516,
      "semi_major_axis_km": 6861.1571766655725,
      "eccentricity": 0.0002562,
      "inclination_deg": 43.0055,
      "raan_deg": 105.1634,
      "arg_perigee_deg": 261.3735,
      "mean_anomaly_deg": 98.6827,
      "mean_motion_rev_day": 15.27589658
    },
    {
      "epoch": "2026-04-16T16:36:25.821792Z",
      "apogee_km": 484.1558026720604,
      "perigee_km": 481.9135717646777,
      "latitude_deg": 4.0750565839894066e-05,
      "longitude_deg": 5.682421519135055,
      "height_km": 482.7782636589479,
      "semi_major_axis_km": 6861.171687218369,
      "eccentricity": 0.0001634,
      "inclination_deg": 42.9985,
      "raan_deg": 99.626,
      "arg_perigee_deg": 271.6943,
      "mean_anomaly_deg": 88.3722,
      "mean_motion_rev_day": 15.27584812
    },
    {
      "epoch": "2026-04-17T16:08:46.518432Z",
      "apogee_km": 484.497026743652,
      "perigee_km": 481.5799293773998,
      "latitude_deg": 5.594957282714771e-05,
      "longitude_deg": 6.087787318528791,
      "height_km": 482.8655572217654,
      "semi_major_axis_km": 6861.175478060526,
      "eccentricity": 0.00021258,
      "inclination_deg": 43.0023,
      "raan_deg": 94.0843,
      "arg_perigee_deg": 268.0524,
      "mean_anomaly_deg": 92.0085,
      "mean_motion_rev_day": 15.27583546
    },
    {
      "epoch": "2026-04-18T15:41:06.810720Z",
      "apogee_km": 484.5154743774565,
      "perigee_km": 481.4636452836439,
      "latitude_deg": 9.600701949444964e-06,
      "longitude_deg": 6.499575916317729,
      "height_km": 482.734880447198,
      "semi_major_axis_km": 6861.12655983055,
      "eccentricity": 0.0002224,
      "inclination_deg": 43.0036,
      "raan_deg": 88.5474,
      "arg_perigee_deg": 271.2174,
      "mean_anomaly_deg": 88.8423,
      "mean_motion_rev_day": 15.27599883
    }
  ]
}